NORAD_CAT_ID,OBJECT_NAME,OBJECT_TYPE,EPOCH,MEAN_MOTION,ECCENTRICITY,INCLINATION,RA_OF_ASC_NODE,ARG_OF_PERICENTER,MEAN_ANOMALY,BSTAR,MEAN_MOTION_DOT,MEAN_MOTION_DDOT,TLE_LINE0,TLE_LINE1,TLE_LINE2,SEMIMAJOR_AXIS,PERIOD,APOGEE,PERIGEE,DECAYED
49143.0,STARLINK-3109,PAYLOAD,2023-10-28 00:03:31,14.98327262,0.0003,69.9978,292.1179,267.6214,92.4601,9.4761e-05,1.038e-05,0.0,0 STARLINK-3109,1 49143U 21082P   23301.00244471  .00001038  00000-0  94761-4 0  9998,2 49143  69.9978 292.1179 0003000 267.6214  92.4601 14.98327262117097,6950.201,96.107,574.151,569.981,0.0
49143.0,STARLINK-3109,PAYLOAD,2023-10-28 09:40:19,14.98320135,0.0002866,69.9986,291.1096,267.0743,93.0088,0.00016654,1.894e-05,0.0,0 STARLINK-3109,1 49143U 21082P   23301.40300838  .00001894  00000-0  16654-3 0  9996,2 49143  69.9986 291.1096 0002866 267.0743  93.0088 14.98320135118272,6950.223,96.108,574.08,570.096,0.0
49143.0,STARLINK-3109,PAYLOAD,2023-10-29 04:53:55,14.98338332,0.0002706,69.9988,289.0884,271.7498,88.3351,7.7015e-06,-1e-08,0.0,0 STARLINK-3109,1 49143U 21082P   23302.20412023 -.00000001  00000-0  77015-5 0  9995,2 49143  69.9988 289.0884 0002706 271.7498  88.3351 14.98338332117274,6950.167,96.106,573.913,570.151,0.0
49143.0,STARLINK-3109,PAYLOAD,2023-10-29 09:42:19,14.98339505,0.0002857,69.9988,288.5837,268.8669,91.2162,0.00013329,1.498e-05,0.0,0 STARLINK-3109,1 49143U 21082P   23302.40439610  .00001498  00000-0  13329-3 0  9994,2 49143  69.9988 288.5837 0002857 268.8669  91.2162 14.98339505118424,6950.163,96.106,574.014,570.043,0.0
49143.0,STARLINK-3109,PAYLOAD,2023-10-30 04:55:57,14.98326611,0.0002664,69.9994,286.564,258.7858,101.3002,0.00011309,1.257e-05,0.0,0 STARLINK-3109,1 49143U 21082P   23303.20552388  .00001257  00000-0  11309-3 0  9990,2 49143  69.9994 286.5640 0002664 258.7858 101.3002 14.98326611117424,6950.203,96.107,573.92,570.217,0.0
49143.0,STARLINK-3109,PAYLOAD,2023-10-30 22:33:25,14.98325716,0.0002453,69.9995,284.7102,261.9468,98.1413,0.00015236,1.725e-05,0.0,0 STARLINK-3109,1 49143U 21082P   23303.93988377  .00001725  00000-0  15236-3 0  9994,2 49143  69.9995 284.7102 0002453 261.9468  98.1413 14.98325716118657,6950.206,96.107,573.776,570.366,0.0
49143.0,STARLINK-3109,PAYLOAD,2023-10-31 04:57:57,14.98333863,0.0002418,69.9995,284.0369,256.4335,103.6555,9.6209e-05,1.055e-05,0.0,0 STARLINK-3109,1 49143U 21082P   23304.20692039  .00001055  00000-0  96209-4 0  9998,2 49143  69.9995 284.0369 0002418 256.4335 103.6555 14.98333863117579,6950.181,96.107,573.726,570.365,0.0
49143.0,STARLINK-3109,PAYLOAD,2023-10-31 08:10:11,14.98366248,0.0002527,69.9995,283.7002,272.1561,87.9309,0.00047788,5.619e-05,0.0,0 STARLINK-3109,1 49143U 21082P   23304.34041413  .00005619  00000-0  47788-3 0  9994,2 49143  69.9995 283.7002 0002527 272.1561  87.9309 14.98366248117592,6950.081,96.105,573.702,570.19,0.0
49143.0,STARLINK-3109,PAYLOAD,2023-10-31 16:10:54,14.98332304,0.0002964,69.9999,282.8589,268.2504,91.8316,3.9146e-05,3.74e-06,0.0,0 STARLINK-3109,1 49143U 21082P   23304.67424202  .00000374  00000-0  39146-4 0  9994,2 49143  69.9999 282.8589 0002964 268.2504  91.8316 14.98332304117648,6950.186,96.107,574.111,569.991,0.0
49143.0,STARLINK-3109,PAYLOAD,2023-10-31 22:35:26,14.98320606,0.0003059,69.9992,282.1855,265.2865,94.7945,0.00025128,2.906e-05,0.0,0 STARLINK-3109,1 49143U 21082P   23304.94128379  .00002906  00000-0  25128-3 0  9997,2 49143  69.9992 282.1855 0003059 265.2865  94.7945 14.98320606118804,6950.222,96.108,574.213,569.961,0.0
49143.0,STARLINK-3109,PAYLOAD,2023-11-01 08:12:15,14.98316913,0.0002827,69.9999,281.1753,263.6663,96.4174,0.00045203,5.303e-05,0.0,0 STARLINK-3109,1 49143U 21082P   23305.34184459  .00005303  00000-0  45203-3 0  9993,2 49143  69.9999 281.1753 0002827 263.6663  96.4174 14.98316913117748,6950.233,96.108,574.063,570.134,0.0
49143.0,STARLINK-3109,PAYLOAD,2023-11-01 16:12:55,14.98331634,0.0002588,70.0007,280.3335,276.1667,83.9197,0.00011467,1.276e-05,0.0,0 STARLINK-3109,1 49143U 21082P   23305.67564162  .00001276  00000-0  11467-3 0  9992,2 49143  70.0007 280.3335 0002588 276.1667  83.9197 14.98331634117793,6950.188,96.107,573.852,570.254,0.0
49143.0,STARLINK-3109,PAYLOAD,2023-11-01 22:37:27,14.98329841,0.0003019,70.0003,279.6598,268.0855,91.9959,0.00016299,1.852e-05,0.0,0 STARLINK-3109,1 49143U 21082P   23305.94267975  .00001852  00000-0  16299-3 0  9992,2 49143  70.0003 279.6598 0003019 268.0855  91.9959 14.98329841118951,6950.193,96.107,574.157,569.96,0.0
49143.0,STARLINK-3109,PAYLOAD,2023-11-02 08:14:15,14.98332992,0.0002773,69.9995,278.6514,265.3307,94.7535,0.00012317,1.377e-05,0.0,0 STARLINK-3109,1 49143U 21082P   23306.34323910  .00001377  00000-0  12317-3 0  9998,2 49143  69.9995 278.6514 0002773 265.3307  94.7535 14.98332992119013,6950.184,96.107,573.976,570.121,0.0
49143.0,STARLINK-3109,PAYLOAD,2023-11-02 21:03:20,14.98330094,0.0002839,69.9997,277.3039,269.2777,90.8057,4.7237e-05,4.71e-06,0.0,0 STARLINK-3109,1 49143U 21082P   23306.87732248  .00000471  00000-0  47237-4 0  9998,2 49143  69.9997 277.3039 0002839 269.2777  90.8057 14.98330094117970,6950.193,96.107,574.031,570.084,0.0
49143.0,STARLINK-3109,PAYLOAD,2023-11-02 22:39:28,14.98329693,0.0002832,69.9997,277.1355,269.2464,90.8371,3.6659e-05,3.44e-06,0.0,0 STARLINK-3109,1 49143U 21082P   23306.94408288  .00000344  00000-0  36659-4 0  9995,2 49143  69.9997 277.1355 0002832 269.2464  90.8371 14.98329693119104,6950.194,96.107,574.027,570.091,0.0
49143.0,STARLINK-3109,PAYLOAD,2023-11-03 08:16:17,14.98328909,0.0002635,69.9999,276.1262,266.0298,94.0559,2.2557e-05,1.76e-06,0.0,0 STARLINK-3109,1 49143U 21082P   23307.34464432  .00000176  00000-0  22557-4 0  9998,2 49143  69.9999 276.1262 0002635 266.0298  94.0559 14.98328909119162,6950.196,96.107,573.893,570.23,0.0
49143.0,STARLINK-3109,PAYLOAD,2023-11-03 22:41:29,14.98346474,0.000197,69.9992,274.6107,277.5283,82.5652,-0.00014536,-1.827e-05,0.0,0 STARLINK-3109,1 49143U 21082P   23307.94547835 -.00001827  00000-0 -14536-3 0  9996,2 49143  69.9992 274.6107 0001970 277.5283  82.5652 14.98346474119251,6950.142,96.106,573.376,570.638,0.0
49143.0,STARLINK-3109,PAYLOAD,2023-11-04 05:06:00,14.98365779,0.0001932,69.9994,273.9379,270.2433,89.8505,-0.00046418,-5.632e-05,0.0,0 STARLINK-3109,1 49143U 21082P   23308.21250948 -.00005632  00000-0 -46418-3 0  9995,2 49143  69.9994 273.9379 0001932 270.2433  89.8505 14.98365779118177,6950.082,96.105,573.29,570.604,0.0
49143.0,STARLINK-3109,PAYLOAD,2023-11-04 08:18:15,14.98389686,0.000211,69.9995,273.6011,271.815,88.2767,-0.00085747,-0.00010324,0.0,0 STARLINK-3109,1 49143U 21082P   23308.34601542 -.00010324  00000-0 -85747-3 0  9991,2 49143  69.9995 273.6011 0002110 271.8150  88.2767 14.98389686118198,6950.008,96.103,573.34,570.407,0.0
49143.0,STARLINK-3109,PAYLOAD,2023-11-04 14:42:49,14.98370726,0.0002118,70.002,272.926,286.4828,73.6098,-0.0007815,-9.414e-05,0.0,0 STARLINK-3109,1 49143U 21082P   23308.61306725 -.00009414  00000-0 -78150-3 0  9994,2 49143  70.0020 272.9260 0002118 286.4828  73.6098 14.98370726118235,6950.067,96.104,573.404,570.46,0.0
49143.0,STARLINK-3109,PAYLOAD,2023-11-04 22:43:30,14.9832696,0.0002931,69.9997,272.0865,271.6327,88.4497,0.00010238,1.129e-05,0.0,0 STARLINK-3109,1 49143U 21082P   23308.94688221  .00001129  00000-0  10238-3 0  9990,2 49143  69.9997 272.0865 0002931 271.6327  88.4497 14.98326960119408,6950.202,96.107,574.104,570.03,0.0
49143.0,STARLINK-3109,PAYLOAD,2023-11-05 03:31:54,14.98330204,0.0002865,70.0001,271.5827,270.7383,89.3447,0.00016836,1.916e-05,0.0,0 STARLINK-3109,1 49143U 21082P   23309.14715958  .00001916  00000-0  16836-3 0  9995,2 49143  70.0001 271.5827 0002865 270.7383  89.3447 14.98330204118317,6950.192,96.107,574.048,570.066,0.0
49143.0,STARLINK-3109,PAYLOAD,2023-11-05 06:44:10,14.98336746,0.0002635,70.0001,271.2451,265.1959,94.89,0.00020644,2.371e-05,0.0,0 STARLINK-3109,1 49143U 21082P   23309.28067492  .00002371  00000-0  20644-3 0  9991,2 49143  70.0001 271.2451 0002635 265.1959  94.8900 14.98336746118333,6950.172,96.107,573.868,570.206,0.0
49143.0,STARLINK-3109,PAYLOAD,2023-11-05 22:45:30,14.98342796,0.0002609,70.0001,269.5617,261.3707,98.7156,0.00015047,1.703e-05,0.0,0 STARLINK-3109,1 49143U 21082P   23309.94826984  .00001703  00000-0  15047-3 0  9992,2 49143  70.0001 269.5617 0002609 261.3707  98.7156 14.98342796119550,6950.153,96.106,573.832,570.205,0.0
49143.0,STARLINK-3109,PAYLOAD,2023-11-06 08:22:18,14.98356192,0.0002704,70.0011,268.5515,260.6593,99.426,0.00041785,4.9e-05,0.0,0 STARLINK-3109,1 49143U 21082P   23310.34881967  .00004900  00000-0  41785-3 0  9990,2 49143  70.0011 268.5515 0002704 260.6593  99.4260 14.98356192118499,6950.112,96.105,573.856,570.098,0.0
49143.0,STARLINK-3109,PAYLOAD,2023-11-06 14:46:52,14.98325259,9.36e-05,70.0027,267.8758,313.2728,46.8353,-0.00010325,-1.324e-05,0.0,0 STARLINK-3109,1 49143U 21082P   23310.61588270 -.00001324  00000-0 -10325-3 0  9996,2 49143  70.0027 267.8758 0000936 313.2728  46.8353 14.98325259118531,6950.208,96.107,572.723,571.422,0.0
49143.0,STARLINK-3109,PAYLOAD,2023-11-06 22:47:33,14.98303885,0.0002939,70.0012,267.0379,273.1994,86.8828,-0.00049707,-6.015e-05,0.0,0 STARLINK-3109,1 49143U 21082P   23310.94968865 -.00006015  00000-0 -49707-3 0  9992,2 49143  70.0012 267.0379 0002939 273.1994  86.8828 14.98303885119702,6950.274,96.109,574.181,570.096,0.0
49143.0,STARLINK-3109,PAYLOAD,2023-11-07 03:35:57,14.983056,0.0003005,70.0001,266.5316,273.6415,86.4401,-0.00047445,-5.746e-05,0.0,0 STARLINK-3109,1 49143U 21082P   23311.14997019 -.00005746  00000-0 -47445-3 0  9995,2 49143  70.0001 266.5316 0003005 273.6415  86.4401 14.98305600118612,6950.268,96.109,574.222,570.045,0.0
49143.0,STARLINK-3109,PAYLOAD,2023-11-07 06:48:13,14.98312857,0.0003009,70.0002,266.1957,269.109,90.9724,-0.00028415,-3.48e-05,0.0,0 STARLINK-3109,1 49143U 21082P   23311.28348759 -.00003480  00000-0 -28415-3 0  9990,2 49143  70.0002 266.1957 0003009 269.1090  90.9724 14.98312857118635,6950.246,96.108,574.202,570.02,0.0
